[{"CCSDS_OMM_VERS":"2.0","COMMENT":"GENERATED VIA SPACE-TRACK.ORG API","CREATION_DATE":"2004-08-15T23:36:23","ORIGINATOR":"18 SPCS","OBJECT_NAME":"DELTA 1 DEB","OBJECT_ID":"1967-123D","CENTER_NAME":"EARTH","REF_FRAME":"TEME","TIME_SYSTEM":"UTC","MEAN_ELEMENT_THEORY":"SGP4","EPOCH":"1968-02-08T06:27:35.145792","MEAN_MOTION":"16.18952953","ECCENTRICITY":"0.00000000","INCLINATION":"32.9084","RA_OF_ASC_NODE":"54.8522","ARG_OF_PERICENTER":"0.0000","MEAN_ANOMALY":"0.0639","EPHEMERIS_TYPE":"0","CLASSIFICATION_TYPE":"U","NORAD_CAT_ID":"3069","ELEMENT_SET_NO":"999","REV_AT_EPOCH":"896","BSTAR":"0.00000000000000","MEAN_MOTION_DOT":"0.02054259","MEAN_MOTION_DDOT":"0.0000000000000","SEMIMAJOR_AXIS":"6600.537","PERIOD":"88.946","APOAPSIS":"222.402","PERIAPSIS":"222.402","OBJECT_TYPE":"DEBRIS","RCS_SIZE":null,"COUNTRY_CODE":null,"LAUNCH_DATE":null,"SITE":null,"DECAY_DATE":"1968-02-12","FILE":"33926","GP_ID":"8784497","TLE_LINE0":"0 DELTA 1 DEB","TLE_LINE1":"1 03069U 67123  D 68039.26915678  .02054259 +00000-0 +00000-0 0  9994","TLE_LINE2":"2 03069 032.9084 054.8522 0000000 000.0000 000.0639 16.18952953008962"},{"CCSDS_OMM_VERS":"2.0","COMMENT":"GENERATED VIA SPACE-TRACK.ORG API","CREATION_DATE":"2004-08-15T23:36:23","ORIGINATOR":"18 SPCS","OBJECT_NAME":"DIAMANT DEB","OBJECT_ID":"1967-011F","CENTER_NAME":"EARTH","REF_FRAME":"TEME","TIME_SYSTEM":"UTC","MEAN_ELEMENT_THEORY":"SGP4","EPOCH":"1968-02-08T07:23:35.024064","MEAN_MOTION":"15.70776884","ECCENTRICITY":"0.00828940","INCLINATION":"39.9346","RA_OF_ASC_NODE":"108.9370","ARG_OF_PERICENTER":"140.6081","MEAN_ANOMALY":"220.0724","EPHEMERIS_TYPE":"0","CLASSIFICATION_TYPE":"U","NORAD_CAT_ID":"2677","ELEMENT_SET_NO":"999","REV_AT_EPOCH":"5197","BSTAR":"0.00000000000000","MEAN_MOTION_DOT":"0.04865809","MEAN_MOTION_DDOT":"0.0000000000000","SEMIMAJOR_AXIS":"6734.816","PERIOD":"91.674","APOAPSIS":"412.509","PERIAPSIS":"300.854","OBJECT_TYPE":"DEBRIS","RCS_SIZE":null,"COUNTRY_CODE":null,"LAUNCH_DATE":null,"SITE":null,"DECAY_DATE":"1968-02-12","FILE":"33926","GP_ID":"8780749","TLE_LINE0":"0 DIAMANT DEB","TLE_LINE1":"1 02677U 67011  F 68039.30804426  .04865809 +00000-0 +00000-0 0  9990","TLE_LINE2":"2 02677 039.9346 108.9370 0082894 140.6081 220.0724 15.70776884051979"},{"CCSDS_OMM_VERS":"2.0","COMMENT":"GENERATED VIA SPACE-TRACK.ORG API","CREATION_DATE":"2004-08-15T23:36:23","ORIGINATOR":"18 SPCS","OBJECT_NAME":"SL-8 DEB","OBJECT_ID":"1965-020DB","CENTER_NAME":"EARTH","REF_FRAME":"TEME","TIME_SYSTEM":"UTC","MEAN_ELEMENT_THEORY":"SGP4","EPOCH":"1968-02-08T12:17:59.412480","MEAN_MOTION":"15.78735268","ECCENTRICITY":"0.00879720","INCLINATION":"55.9425","RA_OF_ASC_NODE":"204.4926","ARG_OF_PERICENTER":"218.1643","MEAN_ANOMALY":"141.3063","EPHEMERIS_TYPE":"0","CLASSIFICATION_TYPE":"U","NORAD_CAT_ID":"1555","ELEMENT_SET_NO":"999","REV_AT_EPOCH":"14790","BSTAR":"0.00000000000000","MEAN_MOTION_DOT":"0.02793877","MEAN_MOTION_DDOT":"0.0059408000000","SEMIMAJOR_AXIS":"6712.164","PERIOD":"91.212","APOAPSIS":"393.077","PERIAPSIS":"274.981","OBJECT_TYPE":"DEBRIS","RCS_SIZE":null,"COUNTRY_CODE":null,"LAUNCH_DATE":null,"SITE":null,"DECAY_DATE":"1968-02-12","FILE":"33926","GP_ID":"8770915","TLE_LINE0":"0 SL-8 DEB","TLE_LINE1":"1 01555U 65020 DB 68039.51249320  .02793877 +59408-2 +00000-0 0  9992","TLE_LINE2":"2 01555 055.9425 204.4926 0087972 218.1643 141.3063 15.78735268147904"},{"CCSDS_OMM_VERS":"2.0","COMMENT":"GENERATED VIA SPACE-TRACK.ORG API","CREATION_DATE":"2004-08-15T23:36:23","ORIGINATOR":"18 SPCS","OBJECT_NAME":"OPS 2243-6236 DEB","OBJECT_ID":"1968-008C","CENTER_NAME":"EARTH","REF_FRAME":"TEME","TIME_SYSTEM":"UTC","MEAN_ELEMENT_THEORY":"SGP4","EPOCH":"1968-02-09T15:29:52.933055","MEAN_MOTION":"16.18179936","ECCENTRICITY":"0.00766680","INCLINATION":"81.4567","RA_OF_ASC_NODE":"146.4360","ARG_OF_PERICENTER":"109.5202","MEAN_ANOMALY":"251.4260","EPHEMERIS_TYPE":"0","CLASSIFICATION_TYPE":"U","NORAD_CAT_ID":"3120","ELEMENT_SET_NO":"999","REV_AT_EPOCH":"249","BSTAR":"0.00000000000000","MEAN_MOTION_DOT":"0.09761326","MEAN_MOTION_DDOT":"0.0000000000000","SEMIMAJOR_AXIS":"6602.639","PERIOD":"88.988","APOAPSIS":"275.125","PERIAPSIS":"173.883","OBJECT_TYPE":"DEBRIS","RCS_SIZE":null,"COUNTRY_CODE":null,"LAUNCH_DATE":null,"SITE":null,"DECAY_DATE":"1968-02-12","FILE":"33926","GP_ID":"8785358","TLE_LINE0":"0 OPS 2243-6236 DEB","TLE_LINE1":"1 03120U 68008  C 68040.64575154  .09761326 +00000-0 +00000-0 0  9997","TLE_LINE2":"2 03120 081.4567 146.4360 0076668 109.5202 251.4260 16.18179936002491"},{"CCSDS_OMM_VERS":"2.0","COMMENT":"GENERATED VIA SPACE-TRACK.ORG API","CREATION_DATE":"2004-08-15T23:36:23","ORIGINATOR":"18 SPCS","OBJECT_NAME":"SL-8 DEB","OBJECT_ID":"1965-112G","CENTER_NAME":"EARTH","REF_FRAME":"TEME","TIME_SYSTEM":"UTC","MEAN_ELEMENT_THEORY":"SGP4","EPOCH":"1968-02-10T20:31:37.752384","MEAN_MOTION":"15.86124325","ECCENTRICITY":"0.00000000","INCLINATION":"56.0359","RA_OF_ASC_NODE":"330.6554","ARG_OF_PERICENTER":"0.0000","MEAN_ANOMALY":"0.0962","EPHEMERIS_TYPE":"0","CLASSIFICATION_TYPE":"U","NORAD_CAT_ID":"1875","ELEMENT_SET_NO":"999","REV_AT_EPOCH":"11645","BSTAR":"0.00000000000000","MEAN_MOTION_DOT":"0.01641022","MEAN_MOTION_DDOT":"0.0000000000000","SEMIMAJOR_AXIS":"6691.302","PERIOD":"90.787","APOAPSIS":"313.167","PERIAPSIS":"313.167","OBJECT_TYPE":"DEBRIS","RCS_SIZE":null,"COUNTRY_CODE":null,"LAUNCH_DATE":null,"SITE":null,"DECAY_DATE":"1968-02-17","FILE":"33926","GP_ID":"8775363","TLE_LINE0":"0 SL-8 DEB","TLE_LINE1":"1 01875U 65112  G 68041.85529806  .01641022 +00000-0 +00000-0 0  9994","TLE_LINE2":"2 01875 056.0359 330.6554 0000000 000.0000 000.0962 15.86124325116458"},{"CCSDS_OMM_VERS":"2.0","COMMENT":"GENERATED VIA SPACE-TRACK.ORG API","CREATION_DATE":"2004-08-15T23:36:23","ORIGINATOR":"18 SPCS","OBJECT_NAME":"TITAN 3C TRANSTAGE DEB","OBJECT_ID":"1965-082K","CENTER_NAME":"EARTH","REF_FRAME":"TEME","TIME_SYSTEM":"UTC","MEAN_ELEMENT_THEORY":"SGP4","EPOCH":"1968-02-11T03:29:33.925920","MEAN_MOTION":"15.37514530","ECCENTRICITY":"0.00000000","INCLINATION":"32.1443","RA_OF_ASC_NODE":"30.0462","ARG_OF_PERICENTER":"329.9537","MEAN_ANOMALY":"30.1067","EPHEMERIS_TYPE":"0","CLASSIFICATION_TYPE":"U","NORAD_CAT_ID":"1648","ELEMENT_SET_NO":"999","REV_AT_EPOCH":"12509","BSTAR":"0.00000000000000","MEAN_MOTION_DOT":"0.00720209","MEAN_MOTION_DDOT":"0.0000000000000","SEMIMAJOR_AXIS":"6831.603","PERIOD":"93.657","APOAPSIS":"453.468","PERIAPSIS":"453.468","OBJECT_TYPE":"DEBRIS","RCS_SIZE":null,"COUNTRY_CODE":null,"LAUNCH_DATE":null,"SITE":null,"DECAY_DATE":"1968-03-02","FILE":"33926","GP_ID":"8772136","TLE_LINE0":"0 TITAN 3C TRANSTAGE DEB","TLE_LINE1":"1 01648U 65082  K 68042.14553155  .00720209 +00000-0 +00000-0 0  9999","TLE_LINE2":"2 01648 032.1443 030.0462 0000000 329.9537 030.1067 15.37514530125099"},{"CCSDS_OMM_VERS":"2.0","COMMENT":"GENERATED VIA SPACE-TRACK.ORG API","CREATION_DATE":"2004-08-15T23:36:23","ORIGINATOR":"18 SPCS","OBJECT_NAME":"WESTFORD NEEDLES","OBJECT_ID":"1963-014AX","CENTER_NAME":"EARTH","REF_FRAME":"TEME","TIME_SYSTEM":"UTC","MEAN_ELEMENT_THEORY":"SGP4","EPOCH":"1968-02-18T07:20:51.194976","MEAN_MOTION":"15.44103579","ECCENTRICITY":"0.02273360","INCLINATION":"83.7274","RA_OF_ASC_NODE":"294.6397","ARG_OF_PERICENTER":"27.4379","MEAN_ANOMALY":"333.8671","EPHEMERIS_TYPE":"0","CLASSIFICATION_TYPE":"U","NORAD_CAT_ID":"3159","ELEMENT_SET_NO":"999","REV_AT_EPOCH":"269","BSTAR":"0.00000000000000","MEAN_MOTION_DOT":"0.51815998","MEAN_MOTION_DDOT":"0.0000000000000","SEMIMAJOR_AXIS":"6812.154","PERIOD":"93.257","APOAPSIS":"588.884","PERIAPSIS":"279.154","OBJECT_TYPE":"DEBRIS","RCS_SIZE":null,"COUNTRY_CODE":null,"LAUNCH_DATE":null,"SITE":null,"DECAY_DATE":"1968-02-18","FILE":"33926","GP_ID":"8786055","TLE_LINE0":"0 WESTFORD NEEDLES","TLE_LINE1":"1 03159U 63014 AX 68049.30614809  .51815998 +00000-0 +00000-0 0  9996","TLE_LINE2":"2 03159 083.7274 294.6397 0227336 027.4379 333.8671 15.44103579002693"},{"CCSDS_OMM_VERS":"2.0","COMMENT":"GENERATED VIA SPACE-TRACK.ORG API","CREATION_DATE":"2004-08-15T23:36:23","ORIGINATOR":"18 SPCS","OBJECT_NAME":"SL-8 DEB","OBJECT_ID":"1965-020BH","CENTER_NAME":"EARTH","REF_FRAME":"TEME","TIME_SYSTEM":"UTC","MEAN_ELEMENT_THEORY":"SGP4","EPOCH":"1968-02-18T15:00:27.588384","MEAN_MOTION":"15.70648974","ECCENTRICITY":"0.00949110","INCLINATION":"56.0546","RA_OF_ASC_NODE":"252.1595","ARG_OF_PERICENTER":"154.7039","MEAN_ANOMALY":"205.8608","EPHEMERIS_TYPE":"0","CLASSIFICATION_TYPE":"U","NORAD_CAT_ID":"1483","ELEMENT_SET_NO":"999","REV_AT_EPOCH":"14800","BSTAR":"0.00000000000000","MEAN_MOTION_DOT":"0.01408064","MEAN_MOTION_DDOT":"0.0000000000000","SEMIMAJOR_AXIS":"6735.182","PERIOD":"91.681","APOAPSIS":"420.971","PERIAPSIS":"293.123","OBJECT_TYPE":"DEBRIS","RCS_SIZE":null,"COUNTRY_CODE":null,"LAUNCH_DATE":null,"SITE":null,"DECAY_DATE":"1968-02-27","FILE":"33926","GP_ID":"8770117","TLE_LINE0":"0 SL-8 DEB","TLE_LINE1":"1 01483U 65020 BH 68049.62531931  .01408064 +00000-0 +00000-0 0  9999","TLE_LINE2":"2 01483 056.0546 252.1595 0094911 154.7039 205.8608 15.70648974148009"}]